OBJECT_NAME,OBJECT_ID,EPOCH,MEAN_MOTION,ECCENTRICITY,INCLINATION,RA_OF_ASC_NODE,ARG_OF_PERICENTER,MEAN_ANOMALY,EPHEMERIS_TYPE,CLASSIFICATION_TYPE,NORAD_CAT_ID,ELEMENT_SET_NO,REV_AT_EPOCH,BSTAR,MEAN_MOTION_DOT,MEAN_MOTION_DDOT
STARLINK-1545,2020-057AR,2026-06-14T22:00:03.000096,15.89521818,.0001866,53.0387,135.6078,161.1797,329.2469,0,U,46156,999,599,.86372E-3,.265843E-2,0
STARLINK-1595,2020-057AU,2026-06-14T05:36:02.458656,15.73822329,.0006191,53.0393,184.9742,37.9388,322.2065,0,U,46159,999,32269,.73008E-3,.106064E-2,0
STARLINK-1598,2020-057AV,2026-06-14T06:32:14.399232,15.73438606,.0001642,53.0413,170.9518,349.3085,10.7897,0,U,46160,999,32288,.66407E-3,.94619E-3,0
STARLINK-1626,2020-057BC,2026-06-14T18:07:17.859648,15.76988238,.0001703,53.0378,177.8387,72.3515,287.7690,0,U,46167,999,32158,.66099E-3,.110218E-2,0
STARLINK-1633,2020-057BG,2026-06-14T22:00:03.000096,15.85712063,.0002069,53.0318,137.6568,147.3090,210.4602,0,U,46171,999,600,.84983E-3,.21537E-2,0
STARLINK-1635,2020-057BH,2026-06-14T22:00:03.000096,15.93161437,.0002323,53.0320,135.1931,164.4408,271.9306,0,U,46172,999,589,.92663E-3,.331374E-2,.53284E-4
STARLINK-1640,2020-057BJ,2026-06-14T17:07:58.196064,15.73985025,.0006026,53.0390,183.6121,37.4465,322.6972,0,U,46173,999,32149,.70587E-3,.103208E-2,0
STARLINK-1641,2020-057BK,2026-06-14T07:19:32.229696,15.63336971,.00018695,53.0455,177.7335,52.9017,307.2167,0,U,46174,999,32154,.62803013E-3,.58722E-3,0
STARLINK-1654,2020-062B,2026-06-14T12:55:11.947872,16.25024674,.00087966,53.0221,204.2470,328.9536,31.0983,0,U,46326,999,32027,.10344913E-2,.3121057E-1,.11976312E-4
STARLINK-1695,2020-062E,2026-06-14T10:49:20.679456,15.73668203,.00034935,53.0397,222.1087,9.9424,350.1663,0,U,46329,999,32001,.71129572E-3,.102518E-2,0
STARLINK-1719,2020-062G,2026-06-14T22:00:03.000096,15.83060454,.0002851,53.0343,219.0066,30.6967,23.7270,0,U,46331,999,593,.79768E-3,.177261E-2,0
STARLINK-1759,2020-062R,2026-06-14T22:00:03.000096,15.86927662,.0009401,53.0114,208.4558,356.3389,9.0880,0,U,46340,999,594,.80327E-3,.216628E-2,0
STARLINK-1762,2020-062T,2026-06-14T14:45:08.111808,15.38853416,.0002944,53.1546,278.0850,272.7437,87.3230,0,U,46342,999,31927,.11845E-2,.4609E-3,0
STARLINK-1764,2020-062U,2026-06-14T13:27:04.864608,16.29262137,.00061091,53.0159,188.5627,328.8972,31.1707,0,U,46343,999,32049,.87059348E-3,.3816794E-1,.12091976E-4
STARLINK-1547,2020-062Y,2026-06-14T22:00:03.000096,15.92281988,.0006493,53.0252,153.9228,46.7871,125.4501,0,U,46347,999,602,.94641E-3,.323707E-2,.50856E-4
STARLINK-1553,2020-062Z,2026-06-14T20:04:42.951936,15.41823954,.0003285,53.0347,208.1834,67.6435,292.4917,0,U,46348,999,32025,.52891E-3,.22419E-3,0
STARLINK-1646,2020-062AC,2026-06-14T22:00:03.000096,15.79795721,.0009382,53.0351,216.2067,5.2390,27.7340,0,U,46351,999,599,.38308E-3,.72084E-3,0
STARLINK-1653,2020-062AD,2026-06-14T22:00:03.000096,15.79140123,.0003638,53.0357,202.3533,298.6659,29.6909,0,U,46352,999,593,.66385E-3,.12215E-2,0
STARLINK-1656,2020-062AE,2026-06-14T19:46:39.020736,15.70091559,.0001594,53.0400,245.2861,298.1696,61.9159,0,U,46353,999,31972,.65303E-3,.8058E-3,0
STARLINK-1661,2020-062AG,2026-06-14T14:20:08.543904,15.39096446,.0002559,53.1554,278.0589,245.2843,114.7895,0,U,46355,999,31927,.13404E-2,.5267E-3,0
STARLINK-1665,2020-062AH,2026-06-14T19:50:45.868992,16.01040148,.0002142,53.0292,211.8007,23.1480,336.9645,0,U,46356,999,32019,.98332E-3,.54507E-2,.14339E-3
STARLINK-1666,2020-062AJ,2026-06-14T22:00:03.000096,15.83316274,.0007262,53.0326,213.5881,6.5363,137.0339,0,U,46357,999,584,.7159E-3,.16087E-2,0
STARLINK-1707,2020-062AL,2026-06-14T22:00:03.000096,15.91054924,.0006285,53.0138,149.4650,45.1770,136.6365,0,U,46359,999,602,.50497E-3,.160381E-2,.20584E-4
STARLINK-1724,2020-062BC,2026-06-14T17:54:43.750944,15.71729978,.0005351,53.0196,171.9985,351.3572,8.7352,0,U,46375,999,32074,.61377E-3,.81168E-3,0
STARLINK-1770,2020-062BL,2026-06-14T19:25:22.031328,15.78544900,.00035,53.0360,194.6654,346.3154,13.7771,0,U,46383,999,32043,.47397E-3,.84318E-3,0
STARLINK-1771,2020-062BM,2026-06-14T10:34:18.379200,15.63129744,.00034301,53.0368,238.7012,22.8106,337.3060,0,U,46384,999,31978,.42926677E-3,.39552E-3,0
STARLINK-1663,2020-070D,2026-06-14T22:00:03.000096,15.98814663,.0001819,53.0293,9.6814,276.5412,272.0822,0,U,46535,999,596,.74915E-3,.364834E-2,.66597E-4
STARLINK-1672,2020-070F,2026-06-14T19:49:56.208864,15.62577618,.0002983,53.0446,27.5873,80.4524,279.6827,0,U,46537,999,31517,.62389E-3,.56603E-3,0
STARLINK-1678,2020-070G,2026-06-14T22:00:03.000096,15.89699048,.0004241,53.0311,347.7400,247.9258,330.1704,0,U,46538,999,595,.11329E-2,.355773E-2,0
STARLINK-1664,2020-070X,2026-06-14T20:03:25.161696,15.51026543,.000355,53.0435,30.2851,139.7002,220.4270,0,U,46553,999,31513,.1235E-2,.73241E-3,0
STARLINK-1676,2020-070AA,2026-06-14T20:31:11.165376,15.70580042,.0006011,53.0385,30.6436,103.1896,256.9792,0,U,46556,999,31513,.70678E-3,.8923E-3,0
STARLINK-1679,2020-070AB,2026-06-14T22:00:03.000096,15.86959088,.0002173,53.0389,4.0515,273.6318,98.9325,0,U,46557,999,593,.98514E-3,.267025E-2,0
STARLINK-1714,2020-070AG,2026-06-14T19:10:42.106080,15.73372721,.0004308,53.0378,1.7346,134.3233,225.8138,0,U,46562,999,31553,.74536E-3,.106162E-2,0
STARLINK-1730,2020-070AH,2026-06-14T20:27:38.661984,15.63242030,.0001458,53.0259,14.0931,266.0848,93.9999,0,U,46563,999,31536,.12215E-2,.115092E-2,0
STARLINK-1735,2020-070AK,2026-06-14T22:00:03.000096,15.93147147,.0003075,53.0319,355.8218,283.9925,235.5741,0,U,46565,999,579,.93926E-3,.335746E-2,.54421E-4
STARLINK-1741,2020-070AM,2026-06-14T22:00:03.000096,15.95323361,.000258,53.0326,353.1278,291.0043,43.9148,0,U,46567,999,596,.1034E-2,.41572E-2,.80326E-4
STARLINK-1531,2020-070AS,2026-06-14T22:00:03.000096,15.93082228,.000817,53.0444,14.9939,230.2153,105.1003,0,U,46572,999,596,.6825E-3,.242925E-2,.33516E-4
STARLINK-1677,2020-070AW,2026-06-14T12:28:54.854976,16.07328359,.00083011,53.0208,358.1426,264.7189,95.2896,0,U,46576,999,31555,.99806992E-3,.812428E-2,.35854548E-3
STARLINK-1728,2020-070BC,2026-06-14T22:00:03.000096,15.77070874,.0000951,53.0347,9.1950,287.4154,245.8377,0,U,46582,999,592,.53018E-3,.8837E-3,0
STARLINK-1736,2020-070BF,2026-06-14T17:58:22.008576,16.29427956,.0009379,53.0203,347.0268,284.9538,75.0465,0,U,46585,999,31572,.8529E-3,.3829194E-1,.12077E-4
STARLINK-1716,2020-073C,2026-06-14T22:00:03.000096,15.99063366,.0004748,53.0329,75.3686,221.2881,229.3945,0,U,46672,999,592,.82917E-3,.410315E-2,.82064E-4
STARLINK-1718,2020-073E,2026-06-14T22:00:03.000096,15.77272178,.0002057,53.0413,110.3264,155.1998,205.4555,0,U,46674,999,582,.22663E-3,.37509E-3,0
STARLINK-1781,2020-073R,2026-06-14T19:41:38.486112,15.74214441,.0003487,53.0419,126.4625,25.7969,334.3223,0,U,46685,999,31231,.73339E-3,.108325E-2,0
STARLINK-1784,2020-073T,2026-06-14T22:00:03.000096,15.89830834,.000304,53.0364,63.7851,221.7632,163.0918,0,U,46687,999,594,.80782E-3,.252146E-2,0
STARLINK-1788,2020-073V,2026-06-14T22:00:03.000096,15.87639286,.0003623,53.0311,95.2475,85.7881,112.0986,0,U,46689,999,600,.83404E-3,.232799E-2,0
STARLINK-1797,2020-073AE,2026-06-14T12:48:21.627360,15.69734408,.00062876,53.0398,95.2716,65.9241,294.2432,0,U,46698,999,31273,.64769379E-3,.78786E-3,0
STARLINK-1802,2020-073AJ,2026-06-14T14:03:11.907072,15.38680650,.0004762,53.1549,124.3117,48.6670,311.4743,0,U,46702,999,31235,.12597E-2,.48789E-3,0
STARLINK-1805,2020-073AM,2026-06-14T14:44:35.766240,15.69370076,.0003624,53.0428,130.5109,49.2532,310.8798,0,U,46705,999,31224,.62381E-3,.7463E-3,0
STARLINK-1807,2020-073AN,2026-06-14T05:05:59.192160,15.31324561,.00046004,53.0556,140.7252,59.2232,300.9220,0,U,46706,999,31207,.13214594E-2,.40397E-3,0
STARLINK-1810,2020-073AR,2026-06-14T03:09:59.750784,15.64616850,.00064795,53.0389,125.2565,61.6896,298.4771,0,U,46709,999,31227,.75105146E-3,.74197E-3,0
STARLINK-1815,2020-073AV,2026-06-14T12:17:05.777952,16.19487878,.00059704,53.0280,73.6472,238.2925,121.7531,0,U,46713,999,31302,.9297934E-3,.1778281E-1,.11795045E-4
STARLINK-1817,2020-073AX,2026-06-14T22:00:03.000096,15.89553204,.0002728,53.0412,95.0234,186.3802,248.1835,0,U,46715,999,589,.69053E-3,.211429E-2,0
STARLINK-1821,2020-073BA,2026-06-14T22:00:03.000096,15.51736480,.0003791,53.0418,123.7141,89.7421,301.4423,0,U,46718,999,575,.15003E-2,.91587E-3,0
STARLINK-1826,2020-073BF,2026-06-14T22:00:03.000096,15.81535221,.0006432,53.0423,59.6147,151.5646,346.5462,0,U,46723,999,583,.44282E-3,.90479E-3,0
STARLINK-1828,2020-073BH,2026-06-14T13:58:19.181280,15.69919040,.0006584,53.0467,122.8191,29.0722,331.0660,0,U,46725,999,31235,.58962E-3,.72173E-3,0
STARLINK-1830,2020-073BK,2026-06-14T22:00:03.000096,15.77668855,.0002467,53.0364,66.0489,204.1104,26.0157,0,U,46727,999,597,.35092E-3,.59654E-3,0
STARLINK-1892,2020-074E,2026-06-14T07:30:50.844672,15.69863068,.00098259,53.0365,182.4114,9.2983,350.8213,0,U,46743,999,31216,.83602338E-3,.102869E-2,0
STARLINK-1905,2020-074H,2026-06-14T22:00:03.000096,15.93877004,.0001694,53.0309,159.4081,120.0546,97.0757,0,U,46746,999,601,.95379E-3,.354407E-2,.59972E-4
STARLINK-1922,2020-074Q,2026-06-14T22:00:03.000096,15.99269846,.0001641,53.0317,158.0923,145.7302,152.8692,0,U,46753,999,601,.95161E-3,.476278E-2,.10816E-3
STARLINK-1928,2020-074V,2026-06-14T16:32:40.358400,16.04994670,.0001606,53.0301,157.9420,112.1132,248.0070,0,U,46758,999,31253,.11463E-2,.803364E-2,.33652E-3
STARLINK-1835,2020-074AV,2026-06-14T22:00:03.000096,15.78018696,.0001364,53.0360,155.8248,102.7072,244.0003,0,U,46782,999,583,.67085E-3,.117246E-2,0
STARLINK-1882,2020-074AX,2026-06-14T22:00:03.000096,15.93073886,.0003745,53.0385,151.4181,108.5177,231.3258,0,U,46784,999,601,.98624E-3,.351398E-2,.58619E-4
STARLINK-1893,2020-074AZ,2026-06-14T15:54:16.528320,15.71392065,.0002049,53.0410,152.4618,77.8665,282.2582,0,U,46786,999,31261,.6906E-3,.90148E-3,0
STARLINK-1931,2020-074BD,2026-06-14T20:23:00.993984,16.02300536,.0000891,53.0298,156.9976,119.5100,240.6019,0,U,46790,999,31255,.89886E-3,.536243E-2,.14137E-3
